{
    "links": {
        "self": "http://www.neowsapp.com/rest/v1/neo/3879320?api_key=iIulBulltgU6a56xZRHN4H3l9WmuAYTsLGpBGhQ2"
    },
    "id": "3879320",
    "neo_reference_id": "3879320",
    "name": "(2019 UY3)",
    "designation": "2019 UY3",
    "nasa_jpl_url": "http://ssd.jpl.nasa.gov/sbdb.cgi?sstr=3879320",
    "absolute_magnitude_h": 23.7,
    "estimated_diameter": {
        "kilometers": {
            "estimated_diameter_min": 0.0483676488,
            "estimated_diameter_max": 0.1081533507
        },
        "meters": {
            "estimated_diameter_min": 48.3676488219,
            "estimated_diameter_max": 108.1533506775
        },
        "miles": {
            "estimated_diameter_min": 0.0300542543,
            "estimated_diameter_max": 0.0672033557
        },
        "feet": {
            "estimated_diameter_min": 158.6865169607,
            "estimated_diameter_max": 354.8338390368
        }
    },
    "is_potentially_hazardous_asteroid": false,
    "close_approach_data": [
        {
            "close_approach_date": "2019-09-30",
            "close_approach_date_full": "2019-Sep-30 14:49",
            "epoch_date_close_approach": 1569854940000,
            "relative_velocity": {
                "kilometers_per_second": "7.0312863636",
                "kilometers_per_hour": "25312.6309088498",
                "miles_per_hour": "15728.2844666684"
            },
            "miss_distance": {
                "astronomical": "0.1170228981",
                "lunar": "45.5219073609",
                "kilometers": "17506376.296987047",
                "miles": "10877957.8133413686"
            },
            "orbiting_body": "Earth"
        }
    ],
    "orbital_data": {
        "orbit_id": "3",
        "orbit_determination_date": "2019-10-30 08:02:55",
        "first_observation_date": "2019-10-21",
        "last_observation_date": "2019-10-30",
        "data_arc_in_days": 9,
        "observations_used": 26,
        "orbit_uncertainty": "8",
        "minimum_orbit_intersection": ".0372476",
        "jupiter_tisserand_invariant": "4.318",
        "epoch_osculation": "2458778.5",
        "eccentricity": ".3452495491765892",
        "semi_major_axis": "1.583290032088349",
        "inclination": "4.850244367790435",
        "ascending_node_longitude": "323.5615618923187",
        "orbital_period": "727.677829474333",
        "perihelion_distance": "1.036659862294059",
        "perihelion_argument": "23.88921465791548",
        "aphelion_distance": "2.129920201882639",
        "perihelion_time": "2458743.913924990265",
        "mean_anomaly": "17.1105762731552",
        "mean_motion": ".4947244308103496",
        "equinox": "J2000",
        "orbit_class": {
            "orbit_class_type": "AMO",
            "orbit_class_description": "Near-Earth asteroid orbits similar to that of 1221 Amor",
            "orbit_class_range": "1.017 AU < q (perihelion) < 1.3 AU"
        }
    },
    "is_sentry_object": false
}